NORAD_CAT_ID,OBJECT_NAME,OBJECT_TYPE,EPOCH,MEAN_MOTION,ECCENTRICITY,INCLINATION,RA_OF_ASC_NODE,ARG_OF_PERICENTER,MEAN_ANOMALY,BSTAR,MEAN_MOTION_DOT,MEAN_MOTION_DDOT,TLE_LINE0,TLE_LINE1,TLE_LINE2,SEMIMAJOR_AXIS,PERIOD,APOGEE,PERIGEE,DECAYED
51749.0,STARLINK-3451,PAYLOAD,2022-04-08 14:00:03,15.6811446,0.0001347,53.2175,271.9941,46.342,30.5896,-0.0069048999999999,-0.00719093,0.0,0 STARLINK-3451,1 51749U 22016AM  22098.58336806 -.00719093  00000-0 -69049-2 0  9998,2 51749  53.2175 271.9941 0001347  46.3420  30.5896 15.68114460  3705,6742.433000000001,91.83,365.207,363.39,0.0
51749.0,STARLINK-3451,PAYLOAD,2022-04-08 22:00:00,15.67598266,0.0001445,53.2174,270.3568,47.1634,112.1448,-0.0069406999999999,-0.00708575,0.0,0 STARLINK-3451,1 51749U 22016AM  22098.91667824 -.00708575  00000-0 -69407-2 0  9993,2 51749  53.2174 270.3568 0001445  47.1634 112.1448 15.67598266  8565,6743.9140000000025,91.86,366.753,364.804,0.0
51749.0,STARLINK-3451,PAYLOAD,2022-04-09 14:00:01,15.66585096,0.0001449,53.2177,267.081,41.7762,280.7042,-0.007356,-0.00719558,0.0,0 STARLINK-3451,1 51749U 22016AM  22099.58334491 -.00719558  00000-0 -73560-2 0  9996,2 51749  53.2177 267.0810 0001449  41.7762 280.7042 15.66585096  3706,6746.821,91.92,369.664,367.708,0.0
51749.0,STARLINK-3451,PAYLOAD,2022-04-09 22:00:00,15.66071413,0.0001404,53.2174,265.4472,40.5634,2.585,-0.0074367,-0.0071301,0.0,0 STARLINK-3451,1 51749U 22016AM  22099.91667824 -.00713010  00000-0 -74367-2 0  9995,2 51749  53.2174 265.4472 0001404  40.5634   2.5850 15.66071413  8711,6748.295999999999,91.95,371.109,369.214,0.0
51749.0,STARLINK-3451,PAYLOAD,2022-04-10 14:00:01,15.6505281,0.0001740999999999,53.2176,262.1789,38.9712,163.6748,-0.0077733,-0.00715184,0.0,0 STARLINK-3451,1 51749U 22016AM  22100.58334491 -.00715184  00000-0 -77733-2 0  9996,2 51749  53.2176 262.1789 0001741  38.9712 163.6748 15.65052810  3708,6751.224,92.01,374.264,371.913,0.0
51749.0,STARLINK-3451,PAYLOAD,2022-04-10 20:00:01,15.64669054,0.0001522,53.2174,260.9565,47.6816,124.1433,-0.0078666,-0.00712876,0.0,0 STARLINK-3451,1 51749U 22016AM  22100.83334491 -.00712876  00000-0 -78666-2 0  9995,2 51749  53.2174 260.9565 0001522  47.6816 124.1433 15.64669054  8861,6752.328,92.032,375.22,373.165,0.0
51749.0,STARLINK-3451,PAYLOAD,2022-04-10 22:00:00,15.64541213,0.0001368,53.2173,260.5487,49.9492,231.5255,-0.0078944999999999,-0.00711816,0.0,0 STARLINK-3451,1 51749U 22016AM  22100.91667824 -.00711816  00000-0 -78945-2 0  9996,2 51749  53.2173 260.5487 0001368  49.9492 231.5255 15.64541213  3701,6752.696,92.04,375.484,373.637,0.0
51749.0,STARLINK-3451,PAYLOAD,2022-04-11 14:00:01,15.63524217,0.0001616,53.2175,257.2883,35.1248,42.1702,-0.0082893,-0.00717333,0.0,0 STARLINK-3451,1 51749U 22016AM  22101.58334491 -.00717333  00000-0 -82893-2 0  9998,2 51749  53.2175 257.2883 0001616  35.1248  42.1702 15.63524217  3705,6755.623000000001,92.1,378.58,376.397,0.0
51749.0,STARLINK-3451,PAYLOAD,2022-04-11 20:00:01,15.63140335,0.0001361999999999,53.2176,256.0684,44.152,0.9435,-0.0083872,-0.00715015,0.0,0 STARLINK-3451,1 51749U 22016AM  22101.83334491 -.00715015  00000-0 -83872-2 0  9999,2 51749  53.2176 256.0684 0001362  44.1520   0.9435 15.63140335  9013,6756.729,92.122,379.515,377.674,0.0
51749.0,STARLINK-3451,PAYLOAD,2022-04-11 22:00:00,15.63010856,0.0001482,53.2172,255.6614,45.5824,108.704,-0.0083788,-0.00711035,0.0,0 STARLINK-3451,1 51749U 22016AM  22101.91667824 -.00711035  00000-0 -83788-2 0  9991,2 51749  53.2172 255.6614 0001482  45.5824 108.7040 15.63010856  3693,6757.103,92.13,379.969,377.966,0.0
51749.0,STARLINK-3451,PAYLOAD,2022-04-12 14:00:01,15.61994078,0.0001724,53.2176,252.4084,33.6561,272.7734,-0.0087915,-0.00716414,0.0,0 STARLINK-3451,1 51749U 22016AM  22102.58334491 -.00716414  00000-0 -87915-2 0  9998,2 51749  53.2176 252.4084 0001724  33.6561 272.7734 15.61994078  3718,6760.035,92.19,383.065,380.734,0.0
51749.0,STARLINK-3451,PAYLOAD,2022-04-12 20:00:01,15.61609179,0.0001485,53.2175,251.1913,48.5146,224.3369,-0.0088688999999999,-0.00712254,0.0,0 STARLINK-3451,1 51749U 22016AM  22102.83334491 -.00712254  00000-0 -88689-2 0  9993,2 51749  53.2175 251.1913 0001485  48.5146 224.3369 15.61609179  9170,6761.145,92.213,384.014,382.006,0.0
51749.0,STARLINK-3451,PAYLOAD,2022-04-12 22:00:00,15.61483569,0.0001385,53.2171,250.7852,39.6651,341.9162,-0.0089414,-0.0071436,0.0,0 STARLINK-3451,1 51749U 22016AM  22102.91667824 -.00714360  00000-0 -89414-2 0  9998,2 51749  53.2171 250.7852 0001385  39.6651 341.9162 15.61483569  3695,6761.5080000000025,92.22,384.309,382.436,0.0
51749.0,STARLINK-3451,PAYLOAD,2022-04-13 14:00:03,15.60461648,0.0001961,53.2172,247.5396,31.5858,138.5941,-0.0092699,-0.00712138,0.0,0 STARLINK-3451,1 51749U 22016AM  22103.58336806 -.00712138  00000-0 -92699-2 0  9995,2 51749  53.2172 247.5396 0001961  31.5858 138.5941 15.60461648  3703,6764.46,92.28,387.651,384.99800000000016,0.0
51749.0,STARLINK-3451,PAYLOAD,2022-04-13 22:00:00,15.59953706,0.0001431,53.217,245.92,51.5559,191.8068,-0.0094913,-0.00714663,0.0,0 STARLINK-3451,1 51749U 22016AM  22103.91667824 -.00714663  00000-0 -94913-2 0  9995,2 51749  53.2170 245.9200 0001431  51.5559 191.8068 15.59953706  9346,6765.928000000001,92.31,388.761,386.825,0.0
51749.0,STARLINK-3451,PAYLOAD,2022-04-14 14:00:01,15.58934813,0.000174,53.2175,242.6823,30.519,357.634,-0.0099012,-0.00716846,0.0,0 STARLINK-3451,1 51749U 22016AM  22104.58334491 -.00716846  00000-0 -99012-2 0  9990,2 51749  53.2175 242.6823 0001740  30.5190 357.6340 15.58934813  3703,6768.876,92.371,391.918,389.56300000000016,0.0
51749.0,STARLINK-3451,PAYLOAD,2022-04-14 22:00:00,15.584236,0.0001477,53.2171,241.0659,42.4807,57.1482,-0.010055,-0.00714132,0.0,0 STARLINK-3451,1 51749U 22016AM  22104.91667824 -.00714132  00000-0 -10055-1 0  9991,2 51749  53.2171 241.0659 0001477  42.4807  57.1482 15.58423600  9491,6770.356,92.401,393.221,391.221,0.0
51749.0,STARLINK-3451,PAYLOAD,2022-04-15 14:00:01,15.57401561,0.000184,53.2175,237.8359,35.9295,204.8139,-0.010402,-0.00711088,0.0,0 STARLINK-3451,1 51749U 22016AM  22105.58334491 -.00711088  00000-0 -10402-1 0  9999,2 51749  53.2175 237.8359 0001840  35.9295 204.8139 15.57401561  3706,6773.318,92.462,396.429,393.936,0.0
51749.0,STARLINK-3451,PAYLOAD,2022-04-15 22:00:00,15.56894981,0.0001386999999999,53.2171,236.223,47.9607,262.4186,-0.010683,-0.0071597,0.0,0 STARLINK-3451,1 51749U 22016AM  22105.91667824 -.00715970  00000-0 -10683-1 0  9990,2 51749  53.2171 236.2230 0001387  47.9607 262.4186 15.56894981  9652,6774.7869999999975,92.492,397.591,395.712,0.0
51749.0,STARLINK-3451,PAYLOAD,2022-04-16 14:00:01,15.558737400000002,0.0001969,53.2172,233.0007,27.5823,60.2343,-0.01107,-0.00714367,0.0,0 STARLINK-3451,1 51749U 22016AM  22106.58334491 -.00714367  00000-0 -11070-1 0  9995,2 51749  53.2172 233.0007 0001969  27.5823  60.2343 15.55873740  3708,6777.751,92.552,400.951,398.281,0.0
51749.0,STARLINK-3451,PAYLOAD,2022-04-16 22:00:01,15.55363953,0.0001576999999999,53.2171,231.3912,43.6805,112.0002,-0.011286,-0.00714532,0.0,0 STARLINK-3451,1 51749U 22016AM  22106.91668981 -.00714532  00000-0 -11286-1 0  9999,2 51749  53.2171 231.3912 0001577  43.6805 112.0002 15.55363953  9813,6779.232,92.583,402.166,400.028,0.0
51749.0,STARLINK-3451,PAYLOAD,2022-04-17 14:00:01,15.5434271,0.0001826,53.2174,228.1763,34.2052,255.1709,-0.01168,-0.00712332,0.0,0 STARLINK-3451,1 51749U 22016AM  22107.58334491 -.00712332  00000-0 -11680-1 0  9993,2 51749  53.2174 228.1763 0001826  34.2052 255.1709 15.54342710  3703,6782.201,92.644,405.304,402.828,0.0
51749.0,STARLINK-3451,PAYLOAD,2022-04-17 22:00:00,15.53834793,0.000147,53.2173,226.5703,39.6229,315.7132,-0.011949,-0.0071495,0.0,0 STARLINK-3451,1 51749U 22016AM  22107.91667824 -.00714950  00000-0 -11949-1 0  9995,2 51749  53.2173 226.5703 0001470  39.6229 315.7132 15.53834793  3695,6783.679,92.674,406.541,404.547,0.0
51749.0,STARLINK-3451,PAYLOAD,2022-04-18 08:00:01,15.53195822,0.0001801,53.2176,224.5637,37.4984,129.428,-0.012169,-0.00711655,0.0,0 STARLINK-3451,1 51749U 22016AM  22108.33334491 -.00711655  00000-0 -12169-1 0  9997,2 51749  53.2176 224.5637 0001801  37.4984 129.4280 15.53195822 10037,6785.5390000000025,92.712,408.626,406.182,0.0
51749.0,STARLINK-3451,PAYLOAD,2022-04-18 14:00:01,15.52813518,0.0002257,53.2173,223.3631,24.68,100.7397,-0.012367,-0.00713184,0.0,0 STARLINK-3451,1 51749U 22016AM  22108.58334491 -.00713184  00000-0 -12367-1 0  9993,2 51749  53.2173 223.3631 0002257  24.6800 100.7397 15.52813518  3701,6786.653,92.735,410.05,406.986,0.0
51749.0,STARLINK-3451,PAYLOAD,2022-04-18 22:00:00,15.52304357,0.0001608,53.2171,221.7605,44.8566,144.6856,-0.012625,-0.00714466,0.0,0 STARLINK-3451,1 51749U 22016AM  22108.91667824 -.00714466  00000-0 -12625-1 0  9990,2 51749  53.2171 221.7605 0001608  44.8566 144.6856 15.52304357  3707,6788.137,92.765,411.093,408.91,0.0
51749.0,STARLINK-3451,PAYLOAD,2022-04-19 06:00:00,15.51793179,0.0001539,53.2174,220.1582,47.8134,205.2395,-0.012816,-0.00712178,0.0,0 STARLINK-3451,1 51749U 22016AM  22109.25001157 -.00712178  00000-0 -12816-1 0  9999,2 51749  53.2174 220.1582 0001539  47.8134 205.2395 15.51793179 10178,6789.628000000002,92.796,412.537,410.448,0.0
51749.0,STARLINK-3451,PAYLOAD,2022-04-19 14:00:01,15.51284247,0.0001751999999999,53.2173,218.5608,35.7469,280.2015,-0.013093,-0.00723353,0.0,0 STARLINK-3451,1 51749U 22016AM  22109.58334491 -.00723353  00000-0 -13093-1 0  9990,2 51749  53.2173 218.5608 0001752  35.7469 280.2015 15.51284247  3705,6791.111999999999,92.826,414.167,411.788,0.0
51749.0,STARLINK-3451,PAYLOAD,2022-04-20 06:00:00,15.50263074,0.0001553,53.2174,215.3635,39.753,40.152,-0.013527,-0.00720671,0.0,0 STARLINK-3451,1 51749U 22016AM  22110.25001157 -.00720671  00000-0 -13527-1 0  9998,2 51749  53.2174 215.3635 0001553  39.7530  40.1520 15.50263074 10327,6794.094,92.887,417.014,414.904,0.0
